OBJECT_NAME,OBJECT_ID,EPOCH,MEAN_MOTION,ECCENTRICITY,INCLINATION,RA_OF_ASC_NODE,ARG_OF_PERICENTER,MEAN_ANOMALY,EPHEMERIS_TYPE,CLASSIFICATION_TYPE,NORAD_CAT_ID,ELEMENT_SET_NO,REV_AT_EPOCH,BSTAR,MEAN_MOTION_DOT,MEAN_MOTION_DDOT
CUBEBUG-2 (LO-74),2013-066AA,2026-07-04T19:31:37.377120,14.93919406,.00563841,97.8913,134.8681,330.7815,29.0254,0,U,39440,999,67962,.72717333E-3,.7924E-4,0
FUNCUBE-1 (AO-73),2013-066AE,2026-07-04T21:17:34.529280,15.09718097,.00374059,97.8283,157.7053,141.4256,218.9657,0,U,39444,999,68233,.72371422E-3,.11803E-3,0
UWE-3,2013-066AG,2026-07-04T20:39:28.027584,14.97156601,.00473427,97.8705,142.0564,260.6060,98.9807,0,U,39446,999,68022,.43020229E-3,.5022E-4,0
UNISAT-6,2014-033C,2026-07-04T21:11:01.727232,14.88335889,.00450476,97.7903,338.2854,11.9617,348.2658,0,U,40012,999,64879,.38983031E-3,.3619E-4,0
DUCHIFAT-1,2014-033M,2026-07-03T16:42:34.319520,15.68277261,.00003219,98.0432,246.2208,267.7040,92.4182,0,U,40021,999,65833,.12811874E-2,.145426E-2,0
QB50P1,2014-033R,2026-07-04T11:34:03.862560,15.18541175,.00096133,98.0964,197.8434,156.7377,203.4292,0,U,40025,999,65565,.73515104E-3,.15142E-3,0
LILACSAT-2,2015-049K,2026-07-04T22:35:51.256608,15.52071498,.00074632,97.4623,223.4626,173.1183,187.0174,0,U,40908,999,59850,.46843633E-3,.28243E-3,0
FOX-1A (AO-85),2015-058D,2026-07-04T12:33:30.252384,14.91048439,.01315515,64.7734,225.1060,49.8694,311.3855,0,U,40967,999,11615,.3512886E-3,.394E-4,0
CAS-2T & KS-1Q,2016-066G,2026-07-04T11:39:48.526848,14.44750691,.03427469,98.3815,261.0243,77.1704,286.7545,0,U,41847,999,50729,.24203059E-3,.1682E-4,0
RADFXSAT (FOX-1B),2017-073E,2026-07-04T01:47:07.747872,15.12944188,.01481297,97.4676,51.9443,270.3124,88.1134,0,U,43017,999,46794,.34432933E-3,.788E-4,0
DIWATA-2B,2018-084H,2026-07-04T23:24:05.635872,15.00535156,.00131165,98.1209,22.9599,115.4833,244.7748,0,U,43678,999,41888,.38578605E-3,.4809E-4,0
ES'HAIL 2,2018-090A,2026-07-04T22:56:45.102912,1.00273932,.00022852,0.0142,63.2953,79.1469,150.5084,0,U,43700,999,2785,0,.157E-5,0
FOX-1CLIFF (AO-95),2018-099N,2026-07-04T02:48:11.931264,15.27076980,.00069323,97.4372,245.3036,287.7231,72.3251,0,U,43770,999,41580,.5816446E-3,.15402E-3,0
ITASAT,2018-099AE,2026-07-04T14:36:06.044256,15.19286795,.00107606,97.4013,236.7736,293.4333,66.5770,0,U,43786,999,41555,.61886345E-3,.13021E-3,0
JY1SAT (JO-97),2018-099AX,2026-07-04T02:55:50.176128,15.34211411,.00058131,97.4120,248.0201,193.8667,166.2417,0,U,43803,999,41622,.69953957E-3,.2314E-3,0
UWE-4,2018-111E,2026-07-04T17:57:26.266752,15.47282646,.00045784,97.5846,114.9618,242.2642,117.8144,0,U,43880,999,41349,.12604929E-2,.64626E-3,0
TIANYAN 01,2019-093C,2026-07-04T22:47:37.146336,14.86547525,.00144051,97.7522,257.7482,33.7575,326.4555,0,U,44881,999,35405,.11881822E-3,.1E-4,0
RS-44 & BREEZE-KM R/B,2019-096E,2026-07-04T19:55:50.730528,12.79748994,.02185869,82.5235,327.9805,103.1033,259.4562,0,U,44909,999,30460,.45232534E-4,.24E-6,0
SALSAT,2020-068K,2026-07-04T17:44:40.784352,15.30063013,.00082227,97.8855,189.8756,233.3566,126.6918,0,U,46495,999,31804,.46989133E-3,.13612E-3,0
XW-3 (CAS-9),2021-131B,2026-07-04T23:09:06.958368,14.41373749,.00051246,98.4988,278.2586,56.0746,304.0929,0,U,50466,999,23767,.14996288E-3,.442E-5,0
GREENCUBE (IO-117),2022-080E,2026-07-04T14:46:25.944384,6.42583218,.00089125,70.1432,292.1845,286.1739,73.7940,0,U,53109,999,9318,0,-.3E-7,0
UMKA 1 (RS40S),2023-091G,2026-07-04T14:16:10.665696,15.21033126,.00139274,97.5036,244.2261,63.6275,296.6388,0,U,57172,999,16665,.48485153E-3,.10726E-3,0
CUBESX-HSE 3 (RS42S),2023-091N,2026-07-04T03:53:58.716096,15.31659765,.00108523,97.5079,250.9681,40.6240,319.5809,0,U,57178,999,16702,.73019454E-3,.22323E-3,0
MONITOR-3 (RS58S),2023-091Q,2026-07-04T14:49:32.088864,15.28213740,.00120787,97.5069,249.1948,45.6734,314.5494,0,U,57180,999,16695,.7609931E-3,.20927E-3,0
MONITOR-4 (RS57S),2023-091S,2026-07-04T04:52:17.123808,15.28278388,.00121241,97.5064,248.7488,47.3732,312.8527,0,U,57182,999,16689,.52292813E-3,.14373E-3,0
MONITOR-2 (RS39S),2023-091U,2026-07-04T15:18:32.393952,15.19084844,.00123037,97.5059,243.8089,57.8347,302.4079,0,U,57184,999,16660,.41619156E-3,.8682E-4,0
SVYATOBOR 1 (RS60S),2023-091X,2026-07-04T14:58:47.524224,15.26928963,.00098229,97.5075,249.5401,40.6043,319.5927,0,U,57187,999,16697,.6822767E-3,.18016E-3,0
VIZARD-METEO (RS38S),2023-091Z,2026-07-04T16:02:48.752448,15.36614642,.00066339,97.5078,255.5099,20.5624,339.5885,0,U,57189,999,16737,.9934787E-3,.35578E-3,0
POLYTECH-UNIVERSE 3 (RS46S),2023-091AB,2026-07-04T14:19:28.881984,15.19292190,.00168368,97.5033,243.2723,71.7721,288.5344,0,U,57191,999,16659,.41654456E-3,.8757E-4,0
UTMN 2 (RS27S),2023-091AP,2026-07-04T15:04:14.163744,15.32503952,.00078674,97.5073,253.0947,28.5017,331.6653,0,U,57203,999,16721,.80856847E-3,.25376E-3,0
