CUBEBUG-2 (LO-74)
1 39440U 13066AA  26185.81362705  .00007924  00000-0  72717-3 0  9999
2 39440  97.8913 134.8681 0056384 330.7815  29.0254 14.93919406679621
FUNCUBE-1 (AO-73)
1 39444U 13066AE  26185.88720520  .00011803  00000-0  72371-3 0  9990
2 39444  97.8283 157.7053 0037406 141.4256 218.9657 15.09718097682331
UWE-3
1 39446U 13066AG  26185.86074106  .00005022  00000-0  43020-3 0  9997
2 39446  97.8705 142.0564 0047343 260.6060  98.9807 14.97156601680226
UNISAT-6
1 40012U 14033C   26185.88265888  .00003619  00000-0  38983-3 0  9996
2 40012  97.7903 338.2854 0045048  11.9617 348.2658 14.88335889648790
DUCHIFAT-1
1 40021U 14033M   26184.69623055  .00145426  00000-0  12812-2 0  9993
2 40021  98.0432 246.2208 0000322 267.7040  92.4182 15.68277261658338
LILACSAT-2
1 40908U 15049K   26185.94156547  .00028243  00000-0  46844-3 0  9991
2 40908  97.4623 223.4626 0007463 173.1183 187.0174 15.52071498598500
CAS-2T & KS-1Q
1 41847U 16066G   26185.48597832  .00001682  00000-0  24203-3 0  9992
2 41847  98.3815 261.0243 0342747  77.1704 286.7545 14.44750691507292
FOX-1B (AO-91)
1 43017U 17073E   26185.07439523  .00007880  00000-0  34433-3 0  9991
2 43017  97.4676  51.9443 0148130 270.3124  88.1134 15.12944188467946
FUNCUBE-3 (EO-79)/QB50P1
1 40025U 14033R   26185.48198915  .00015142  00000-0  73515-3 0  9996
2 40025  98.0964 197.8434 0009613 156.7377 203.4292 15.18541175655657
FOX-1A (AO-85)
1 40967U 15058D   26185.52326681  .00003940  00000-0  35129-3 0  9999
2 40967  64.7734 225.1060 0131551  49.8694 311.3855 14.91048439116154
DIWATA-2B (PO-101)
1 43678U 18084H   26185.97506523  .00004809  00000-0  38579-3 0  9994
2 43678  98.1209  22.9599 0013117 115.4833 244.7748 15.00535156418889
ESHAIL-2
1 43700U 18090A   26185.95607758  .00000157  00000-0  00000-0 0  9994
2 43700   0.0142  63.2953 0002285  79.1469 150.5084  1.00273932 27856
ITASAT-1
1 43786U 18099AE  26185.60840329  .00013021  00000-0  61886-3 0  9998
2 43786  97.4013 236.7736 0010761 293.4333  66.5770 15.19286795415554
FOX-1CLIFF (AO-95)
1 43770U 18099N   26185.11680476  .00015402  00000-0  58164-3 0  9992
2 43770  97.4372 245.3036 0006932 287.7231  72.3251 15.27076980415801
JY1SAT (JO-97)
1 43803U 18099AX  26185.12210852  .00023140  00000-0  69954-3 0  9994
2 43803  97.4120 248.0201 0005813 193.8667 166.2417 15.34211411416222
UWE-4
1 43880U 18111E   26185.74822068  .00064626  00000-0  12605-2 0  9994
2 43880  97.5846 114.9618 0004578 242.2642 117.8144 15.47282646413492
CAS-6 (TO-108)
1 44881U 19093C   26185.94973549  .00001000  00000-0  11882-3 0  9993
2 44881  97.7522 257.7482 0014405  33.7575 326.4555 14.86547525354052
DOSAAF-85 (RS-44)
1 44909U 19096E   26185.83044827  .00000024  00000-0  45233-4 0  9996
2 44909  82.5235 327.9805 0218587 103.1033 259.4562 12.79748994304605
SALSAT (TUBSAT 22)
1 46495U 20068K   26185.73936093  .00013612  00000-0  46989-3 0  9998
2 46495  97.8855 189.8756 0008223 233.3566 126.6918 15.30063013318040
CAMSAT XW-3 (CAS-9)
1 50466U 21131B   26185.96466387  .00000442  00000-0  14996-3 0  9992
2 50466  98.4988 278.2586 0005125  56.0746 304.0929 14.41373749237673
ROBUSTA 1F (MTCUBE-2)
1 53109U 22080E   26185.61557806 -.00000003  00000-0  00000-0 0  9994
2 53109  70.1432 292.1845 0008913 286.1739  73.7940  6.42583218 93185
UMKA-1 (RS40S)
1 57172U 23091G   26185.59456789  .00010726  00000-0  48485-3 0  9990
2 57172  97.5036 244.2261 0013927  63.6275 296.6388 15.21033126166656
CUBESX-HSE-3 (RS42S)
1 57178U 23091N   26185.16248514  .00022323  00000-0  73019-3 0  9991
2 57178  97.5079 250.9681 0010852  40.6240 319.5809 15.31659765167029
MONITOR-3 (RS58S)
1 57180U 23091Q   26185.61773251  .00020927  00000-0  76099-3 0  9994
2 57180  97.5069 249.1948 0012079  45.6734 314.5494 15.28213740166954
MONITOR-4 (RS57S)
1 57182U 23091S   26185.20297597  .00014373  00000-0  52293-3 0  9993
2 57182  97.5064 248.7488 0012124  47.3732 312.8527 15.28278388166893
MONITOR-2 (RS39S)
1 57184U 23091U   26185.63787493  .00008682  00000-0  41619-3 0  9997
2 57184  97.5059 243.8089 0012304  57.8347 302.4079 15.19084844166608
SVYATOBOR-1 (RS60S)
1 57187U 23091X   26185.62416116  .00018016  00000-0  68228-3 0  9997
2 57187  97.5075 249.5401 0009823  40.6043 319.5927 15.26928963166973
VIZARD-METEO (RS38S)
1 57189U 23091Z   26185.66861982  .00035578  00000-0  99348-3 0  9997
2 57189  97.5078 255.5099 0006634  20.5624 339.5885 15.36614642167374
UTMN-2 (RS27S)
1 57203U 23091AP  26185.62794171  .00025376  00000-0  80857-3 0  9995
2 57203  97.5073 253.0947 0007867  28.5017 331.6653 15.32503952167210
POLYTECH UNIVERSE-3 (RS46S)
1 57191U 23091AB  26185.59686206  .00008757  00000-0  41654-3 0  9992
2 57191  97.5033 243.2723 0016837  71.7721 288.5344 15.19292190166595
